*******************************************************************************
JPL/HORIZONS               1289 Kutaissi (1933 QR)         2023-Sep-04 11:11:17
Rec #:    1289 (+COV) Soln.date: 2023-Aug-21_21:08:54   # obs: 6134 (1893-2023)
 
IAU76/J2000 helio. ecliptic osc. elements (au, days, deg., period=Julian yrs):
 
  EPOCH=  2457422.5 ! 2016-Feb-04.00 (TDB)         Residual RMS= .25617
   EC= .06331643649708478  QR= 2.679126556681072   TP= 2457243.8798862235
   OM= 193.1859574260159   W=  117.6016829785174   IN= 1.616228192681656
   A= 2.860225866099265    MA= 36.39434778047864   ADIST= 3.041325175517459
   PER= 4.83736            N= .203752797           ANGMOM= .029034164
   DAN= 2.93486            DDN= 2.76757            L= 310.7970024
   B= 1.4322444            MOID= 1.66367996        TP= 2015-Aug-09.3798862235
 
Asteroid physical parameters (km, seconds, rotational period in hours):
   GM= n.a.                RAD= 10.7655            ROTPER= 3.6
   H= 10.62                G= .150                 B-V= .800
                           ALBEDO= .245            STYP= S

ASTEROID comments: 
1: soln ref.= JPL#61, OCC=0
2: source=ORB
*******************************************************************************


*******************************************************************************
Ephemeris / API_USER Mon Sep  4 11:11:17 2023 Pasadena, USA      / Horizons
*******************************************************************************
Target body name: 1289 Kutaissi (1933 QR)         {source: JPL#61}
Center body name: Solar System Barycenter (0)     {source: DE441}
Center-site name: BODY CENTER
*******************************************************************************
Start time      : A.D. 2023-Aug-12 00:00:00.0000 TDB
Stop  time      : A.D. 2023-Aug-13 00:00:00.0000 TDB
Step-size       : 2880 minutes
*******************************************************************************
Center geodetic : 0.0, 0.0, 0.0                   {E-lon(deg),Lat(deg),Alt(km)}
Center cylindric: 0.0, 0.0, 0.0                   {E-lon(deg),Dxy(km),Dz(km)}
Center radii    : (undefined)
Small perturbers: Yes                             {source: SB441-N16}
Output units    : KM-S
Calendar mode   : Mixed Julian/Gregorian
Output type     : GEOMETRIC cartesian states
Output format   : 2 (position and velocity)
Reference frame : Ecliptic of J2000.0
*******************************************************************************
Initial IAU76/J2000 heliocentric ecliptic osculating elements (au, days, deg.):
  EPOCH=  2457422.5 ! 2016-Feb-04.00 (TDB)         Residual RMS= .25617        
   EC= .06331643649708478  QR= 2.679126556681072   TP= 2457243.8798862235      
   OM= 193.1859574260159   W=  117.6016829785174   IN= 1.616228192681656       
  Equivalent ICRF heliocentric cartesian coordinates (au, au/d):
   X= 2.690750409190770E+00  Y=-3.676822675734843E-01  Z=-1.288971149673726E-01
  VX= 1.947695275872074E-03 VY= 9.747743886512389E-03 VZ= 3.925284678096229E-03
Asteroid physical parameters (km, seconds, rotational period in hours):        
   GM= n.a.                RAD= 10.7655            ROTPER= 3.6                 
   H= 10.62                G= .150                 B-V= .800                   
                           ALBEDO= .245            STYP= S                     
*******************************************************************************
JDTDB
   X     Y     Z
   VX    VY    VZ
*******************************************************************************
$$SOE
2460168.500000000 = A.D. 2023-Aug-12 00:00:00.0000 TDB 
 X =-4.441928253258019E+08 Y =-7.887202752962332E+06 Z =-2.577758900549135E+06
 VX= 1.157014020208036E+00 VY=-1.697043905130603E+01 VZ= 4.736160054123637E-01
$$EOE
*******************************************************************************
 
TIME

  Barycentric Dynamical Time ("TDB" or T_eph) output was requested. This
continuous coordinate time is equivalent to the relativistic proper time
of a clock at rest in a reference frame co-moving with the solar system
barycenter but outside the system's gravity well. It is the independent
variable in the solar system relativistic equations of motion.

  TDB runs at a uniform rate of one SI second per second and is independent
of irregularities in Earth's rotation.
 
CALENDAR SYSTEM

  Mixed calendar mode was active such that calendar dates after AD 1582-Oct-15
(if any) are in the modern Gregorian system. Dates prior to 1582-Oct-5 (if any)
are in the Julian calendar system, which is automatically extended for dates
prior to its adoption on 45-Jan-1 BC.  The Julian calendar is useful for
matching historical dates. The Gregorian calendar more accurately corresponds
to the Earth's orbital motion and seasons. A "Gregorian-only" calendar mode is
available if such physical events are the primary interest.

REFERENCE FRAME AND COORDINATES

  Ecliptic at the standard reference epoch

    Reference epoch: J2000.0
    X-Y plane: adopted Earth orbital plane at the reference epoch
               Note: IAU76 obliquity of 84381.448 arcseconds wrt ICRF X-Y plane
    X-axis   : ICRF
    Z-axis   : perpendicular to the X-Y plane in the directional (+ or -) sense
               of Earth's north pole at the reference epoch.

  Symbol meaning:

    JDTDB    Julian Day Number, Barycentric Dynamical Time
      X      X-component of position vector (km)
      Y      Y-component of position vector (km)
      Z      Z-component of position vector (km)
      VX     X-component of velocity vector (km/sec)                           
      VY     Y-component of velocity vector (km/sec)                           
      VZ     Z-component of velocity vector (km/sec)                           

ABERRATIONS AND CORRECTIONS

 Geometric state vectors have NO corrections or aberrations applied.

Computations by ...

    Solar System Dynamics Group, Horizons On-Line Ephemeris System
    4800 Oak Grove Drive, Jet Propulsion Laboratory
    Pasadena, CA  91109   USA

    General site: https://ssd.jpl.nasa.gov/
    Mailing list: https://ssd.jpl.nasa.gov/email_list.html
    System news : https://ssd.jpl.nasa.gov/horizons/news.html
    User Guide  : https://ssd.jpl.nasa.gov/horizons/manual.html
    Connect     : browser        https://ssd.jpl.nasa.gov/horizons/app.html#/x
                  API            https://ssd-api.jpl.nasa.gov/doc/horizons.html
                  command-line   telnet ssd.jpl.nasa.gov 6775
                  e-mail/batch   https://ssd.jpl.nasa.gov/ftp/ssd/hrzn_batch.txt
                  scripts        https://ssd.jpl.nasa.gov/ftp/ssd/SCRIPTS
    Author      : Jon.D.Giorgini@jpl.nasa.gov
*******************************************************************************
